STARLINK-33957          
1 63897U 25095H   26067.37739726  .00051228  00000+0  18584-2 0  9994
2 63897  43.0035 183.9355 0001539 241.4171 118.6526 15.27577450 47577
BANDWAGON-4 OBJECT M    
1 66304U 25248M   26068.03503276  .00023645  00000+0  95704-3 0  9995
2 66304  45.4108 294.9904 0012944 207.5285 152.4918 15.24295413 18037
